[{"OBJECT_NAME":"STARLINK-3997","OBJECT_ID":"2022-052M","EPOCH":"2026-03-09T21:34:06.004704","MEAN_MOTION":15.08842054,"ECCENTRICITY":0.00013421,"INCLINATION":53.2167,"RA_OF_ASC_NODE":278.1343,"ARG_OF_PERICENTER":90.169,"MEAN_ANOMALY":269.9456,"EPHEMERIS_TYPE":0,"CLASSIFICATION_TYPE":"U","NORAD_CAT_ID":52609,"ELEMENT_SET_NO":999,"REV_AT_EPOCH":21089,"BSTAR":8.8908519e-5,"MEAN_MOTION_DOT":1.127e-5,"MEAN_MOTION_DDOT":0},{"OBJECT_NAME":"CZ-4B DEB","OBJECT_ID":"2004-035K","EPOCH":"2026-03-08T06:51:30.377664","MEAN_MOTION":15.09293825,"ECCENTRICITY":0.00031468,"INCLINATION":97.5843,"RA_OF_ASC_NODE":91.2716,"ARG_OF_PERICENTER":107.6302,"MEAN_ANOMALY":252.527,"EPHEMERIS_TYPE":0,"CLASSIFICATION_TYPE":"U","NORAD_CAT_ID":29043,"ELEMENT_SET_NO":999,"REV_AT_EPOCH":10418,"BSTAR":0.00031897975,"MEAN_MOTION_DOT":5.021e-5,"MEAN_MOTION_DDOT":0}]
